NOAA 16 DEB             
1 42420U 00055TQ  24125.47097382  .00016246  00000+0  42473-2 0  9996
2 42420  99.0041 312.2672 0016031 337.3424  22.7059 14.49369696423581
